COMMENT,ORIGINATOR,NORAD_CAT_ID,OBJECT_NAME,OBJECT_TYPE,CLASSIFICATION_TYPE,INTLDES,EPOCH,EPOCH_MICROSECONDS,MEAN_MOTION,ECCENTRICITY,INCLINATION,RA_OF_ASC_NODE,ARG_OF_PERICENTER,MEAN_ANOMALY,EPHEMERIS_TYPE,ELEMENT_SET_NO,REV_AT_EPOCH,BSTAR,MEAN_MOTION_DOT,MEAN_MOTION_DDOT,FILE,TLE_LINE0,TLE_LINE1,TLE_LINE2,OBJECT_ID,OBJECT_NUMBER,SEMIMAJOR_AXIS,PERIOD,APOGEE,PERIGEE,DECAYED
GENERATED VIA SPACETRACK.ORG API,18 SPCS,38778,ASTRA 2F,PAYLOAD,U,12051A,2024-02-23 20:59:42,567072,1.0027389,0.0002791,0.1011,260.2708,8.5383,227.532,0,999,3266,0,1.44e-06,0,4196938,0 ASTRA 2F,1 38778U 12051A   24054.87479823  .00000144  00000-0  00000-0 0  9994,2 38778   0.1011 260.2708 0002791   8.5383 227.5320  1.00273890 32667,2012-051A,38778,42164.142,1436.067,35797.775,35774.239,0
GENERATED VIA SPACETRACK.ORG API,18 SPCS,38778,ASTRA 2F,PAYLOAD,U,12051A,2024-02-24 06:28:17,874912,1.00274095,0.0002749,0.1002,260.1651,8.7445,9.9715,0,999,4182,0,1.45e-06,0,4197395,0 ASTRA 2F,1 38778U 12051A   24055.26965133  .00000145  00000-0  00000+0 0  9992,2 38778   0.1002 260.1651 0002749   8.7445   9.9715  1.00274095 41823,2012-051A,38778,42164.084,1436.064,35797.54,35774.358,0
GENERATED VIA SPACETRACK.ORG API,18 SPCS,38778,ASTRA 2F,PAYLOAD,U,12051A,2024-02-24 13:53:42,835200,1.00274241,0.0002707,0.0997,260.0881,9.0756,121.3786,0,999,3266,0,1.46e-06,0,4197491,0 ASTRA 2F,1 38778U 12051A   24055.57896800  .00000146  00000-0  00000-0 0  9992,2 38778   0.0997 260.0881 0002707   9.0756 121.3786  1.00274241 32664,2012-051A,38778,42164.043,1436.062,35797.322,35774.495,0
GENERATED VIA SPACETRACK.ORG API,18 SPCS,38778,ASTRA 2F,PAYLOAD,U,12051A,2024-02-24 21:47:42,590976,1.00274419,0.0002673,0.099,259.9151,9.5489,239.9048,0,999,3267,0,1.47e-06,0,4197760,0 ASTRA 2F,1 38778U 12051A   24055.90813184  .00000147  00000-0  00000-0 0  9994,2 38778   0.0990 259.9151 0002673   9.5489 239.9048  1.00274419 32679,2012-051A,38778,42163.994,1436.059,35797.129,35774.588,0
GENERATED VIA SPACETRACK.ORG API,18 SPCS,38778,ASTRA 2F,PAYLOAD,U,12051A,2024-02-25 13:30:42,658272,1.00274734,0.0002593,0.0977,259.7071,10.0237,116.0405,0,999,4184,0,1.5e-06,0,4198236,0 ASTRA 2F,1 38778U 12051A   24056.56299373  .00000150  00000-0  00000+0 0  9998,2 38778   0.0977 259.7071 0002593  10.0237 116.0405  1.00274734 41843,2012-051A,38778,42163.905,1436.055,35796.703,35774.837,0
GENERATED VIA SPACETRACK.ORG API,18 SPCS,38778,ASTRA 2F,PAYLOAD,U,12051A,2024-02-25 21:17:42,707040,1.00274898,0.0002554,0.097,259.514,10.5114,232.8195,0,999,3268,0,1.51e-06,0,4198683,0 ASTRA 2F,1 38778U 12051A   24056.88729985  .00000151  00000-0  00000-0 0  9992,2 38778   0.0970 259.5140 0002554  10.5114 232.8195  1.00274898 32683,2012-051A,38778,42163.859,1436.052,35796.493,35774.956,0
GENERATED VIA SPACETRACK.ORG API,18 SPCS,38778,ASTRA 2F,PAYLOAD,U,12051A,2024-02-26 13:27:48,731616,1.00275205,0.0002471,0.0955,259.2713,11.0294,115.7413,0,999,3268,0,1.53e-06,0,4199244,0 ASTRA 2F,1 38778U 12051A   24057.56098069  .00000153  00000-0  00000-0 0  9992,2 38778   0.0955 259.2713 0002471  11.0294 115.7413  1.00275205 32687,2012-051A,38778,42163.773,1436.048,35796.057,35775.22,0
GENERATED VIA SPACETRACK.ORG API,18 SPCS,38778,ASTRA 2F,PAYLOAD,U,12051A,2024-02-26 19:51:42,824736,1.00268485,0.0002794,0.095,259.0696,12.5142,210.6872,0,999,4185,0,1.54e-06,0,4199408,0 ASTRA 2F,1 38778U 12051A   24057.82757899  .00000154  00000-0  00000+0 0  9994,2 38778   0.0950 259.0696 0002794  12.5142 210.6872  1.00268485 41851,2012-051A,38778,42165.657,1436.144,35799.303,35775.741,0
GENERATED VIA SPACETRACK.ORG API,18 SPCS,38778,ASTRA 2F,PAYLOAD,U,12051A,2024-02-26 19:51:42,824736,1.00268485,0.0002794,0.095,259.0696,12.5142,210.6872,0,999,3268,0,1.53e-06,0,4199532,0 ASTRA 2F,1 38778U 12051A   24057.82757899  .00000153  00000-0  00000-0 0  9994,2 38778   0.0950 259.0696 0002794  12.5142 210.6872  1.00268485 32682,2012-051A,38778,42165.657,1436.144,35799.303,35775.741,0
GENERATED VIA SPACETRACK.ORG API,18 SPCS,38778,ASTRA 2F,PAYLOAD,U,12051A,2024-02-27 04:55:45,994944,1.00269295,0.0002806,0.094,258.9782,12.7636,346.9119,0,999,3269,0,1.55e-06,0,4200159,0 ASTRA 2F,1 38778U 12051A   24058.20539346  .00000155  00000-0  00000-0 0  9994,2 38778   0.0940 258.9782 0002806  12.7636 346.9119  1.00269295 32697,2012-051A,38778,42165.43,1436.133,35799.127,35775.463,0
GENERATED VIA SPACETRACK.ORG API,18 SPCS,38778,ASTRA 2F,PAYLOAD,U,12051A,2024-02-27 15:14:23,284608,1.00267742,0.0002662,0.0931,258.7765,10.7895,144.1579,0,999,3269,0,1.56e-06,0,4200457,0 ASTRA 2F,1 38778U 12051A   24058.63499172  .00000156  00000-0  00000-0 0  9994,2 38778   0.0931 258.7765 0002662  10.7895 144.1579  1.00267742 32694,2012-051A,38778,42165.865,1436.155,35798.955,35776.506,0
GENERATED VIA SPACETRACK.ORG API,18 SPCS,38778,ASTRA 2F,PAYLOAD,U,12051A,2024-02-28 01:33:05,400576,1.00269937,0.0002708,0.0921,258.5066,14.1199,296.1991,0,999,4186,0,1.57e-06,0,4200677,0 ASTRA 2F,1 38778U 12051A   24059.06464584  .00000157  00000-0  00000+0 0  9991,2 38778   0.0921 258.5066 0002708  14.1199 296.1991  1.00269937 41864,2012-051A,38778,42165.25,1436.123,35798.533,35775.697,0
GENERATED VIA SPACETRACK.ORG API,18 SPCS,38778,ASTRA 2F,PAYLOAD,U,12051A,2024-02-28 11:53:42,726624,1.00270076,0.0002643,0.0911,258.2309,14.5599,91.6123,0,999,3270,0,1.58e-06,0,4201083,0 ASTRA 2F,1 38778U 12051A   24059.49563341  .00000158  00000-0  00000-0 0  9991,2 38778   0.0911 258.2309 0002643  14.5599  91.6123  1.00270076 32700,2012-051A,38778,42165.211,1436.121,35798.22,35775.932,0
GENERATED VIA SPACETRACK.ORG API,18 SPCS,38778,ASTRA 2F,PAYLOAD,U,12051A,2024-02-28 20:27:16,688736,1.00270256,0.0002601,0.0902,257.9681,14.9833,220.1927,0,999,3271,0,1.59e-06,0,4201365,0 ASTRA 2F,1 38778U 12051A   24059.85227649  .00000159  00000-0  00000-0 0  9990,2 38778   0.0902 257.9681 0002601  14.9833 220.1927  1.00270256 32710,2012-051A,38778,42165.161,1436.119,35797.993,35776.058,0
GENERATED VIA SPACETRACK.ORG API,18 SPCS,38778,ASTRA 2F,PAYLOAD,U,12051A,2024-02-29 03:19:45,126336,1.00270368,0.0002573,0.0895,257.9009,15.3505,323.2924,0,999,4187,0,1.6e-06,0,4201544,0 ASTRA 2F,1 38778U 12051A   24060.13871674  .00000160  00000-0  00000+0 0  9997,2 38778   0.0895 257.9009 0002573  15.3505 323.2924  1.00270368 41877,2012-051A,38778,42165.129,1436.117,35797.843,35776.145,0
GENERATED VIA SPACETRACK.ORG API,18 SPCS,38778,ASTRA 2F,PAYLOAD,U,12051A,2024-02-29 13:22:42,516192,1.00270524,0.000252,0.0885,257.6814,15.6436,114.3683,0,999,3271,0,1.6e-06,0,4201938,0 ASTRA 2F,1 38778U 12051A   24060.55743653  .00000160  00000-0  00000-0 0  9999,2 38778   0.0885 257.6814 0002520  15.6436 114.3683  1.00270524 32713,2012-051A,38778,42165.085,1436.115,35797.576,35776.325,0
GENERATED VIA SPACETRACK.ORG API,18 SPCS,38778,ASTRA 2F,PAYLOAD,U,12051A,2024-02-29 20:30:42,695712,1.00270658,0.0002488,0.0878,257.4525,15.9239,221.6095,0,999,3272,0,1.6e-06,0,4202276,0 ASTRA 2F,1 38778U 12051A   24060.85466083  .00000160  00000-0  00000-0 0  9991,2 38778   0.0878 257.4525 0002488  15.9239 221.6095  1.00270658 32727,2012-051A,38778,42165.048,1436.113,35797.404,35776.422,0
GENERATED VIA SPACETRACK.ORG API,18 SPCS,38778,ASTRA 2F,PAYLOAD,U,12051A,2024-03-01 06:09:42,507936,1.00270803,0.0002445,0.0868,257.2681,16.552,6.3103,0,999,4188,0,1.61e-06,0,4202769,0 ASTRA 2F,1 38778U 12051A   24061.25674199  .00000161  00000-0  00000+0 0  9995,2 38778   0.0868 257.2681 0002445  16.5520   6.3103  1.00270803 41887,2012-051A,38778,42165.007,1436.111,35797.182,35776.563,0
GENERATED VIA SPACETRACK.ORG API,18 SPCS,38778,ASTRA 2F,PAYLOAD,U,12051A,2024-03-01 13:41:57,404256,1.0027093,0.0002417,0.0861,257.169,16.5961,119.7358,0,999,3272,0,1.61e-06,0,4202819,0 ASTRA 2F,1 38778U 12051A   24061.57080329  .00000161  00000-0  00000-0 0  9997,2 38778   0.0861 257.1690 0002417  16.5961 119.7358  1.00270930 32722,2012-051A,38778,42164.972,1436.109,35797.028,35776.645,0
GENERATED VIA SPACETRACK.ORG API,18 SPCS,38778,ASTRA 2F,PAYLOAD,U,12051A,2024-03-01 19:34:42,927168,1.00271039,0.0002386,0.0855,256.962,16.8389,208.1303,0,999,3272,0,1.6e-06,0,4203428,0 ASTRA 2F,1 38778U 12051A   24061.81577462  .00000160  00000-0  00000-0 0  9992,2 38778   0.0855 256.9620 0002386  16.8389 208.1303  1.00271039 32721,2012-051A,38778,42164.941,1436.108,35796.867,35776.746,0
GENERATED VIA SPACETRACK.ORG API,18 SPCS,38778,ASTRA 2F,PAYLOAD,U,12051A,2024-03-02 07:24:42,632928,1.00271197,0.0002338,0.0843,256.7178,17.6078,25.5897,0,999,4189,0,1.6e-06,0,4204254,0 ASTRA 2F,1 38778U 12051A   24062.30882677  .00000160  00000-0  00000+0 0  9993,2 38778   0.0843 256.7178 0002338  17.6078  25.5897  1.00271197 41897,2012-051A,38778,42164.897,1436.105,35796.62,35776.904,0
GENERATED VIA SPACETRACK.ORG API,18 SPCS,38778,ASTRA 2F,PAYLOAD,U,12051A,2024-03-02 07:24:42,632928,1.00271197,0.0002338,0.0843,256.7178,17.6078,25.5897,0,999,3273,0,1.6e-06,0,4204354,0 ASTRA 2F,1 38778U 12051A   24062.30882677  .00000160  00000-0  00000-0 0  9994,2 38778   0.0843 256.7178 0002338  17.6078  25.5897  1.00271197 32730,2012-051A,38778,42164.897,1436.105,35796.62,35776.904,0
GENERATED VIA SPACETRACK.ORG API,18 SPCS,38778,ASTRA 2F,PAYLOAD,U,12051A,2024-03-02 21:49:42,824352,1.00271433,0.0002284,0.0829,256.4133,17.814,242.5298,0,999,3274,0,1.59e-06,0,4204905,0 ASTRA 2F,1 38778U 12051A   24062.90952343  .00000159  00000-0  00000-0 0  9996,2 38778   0.0829 256.4133 0002284  17.8140 242.5298  1.00271433 32744,2012-051A,38778,42164.831,1436.102,35796.326,35777.065,0
GENERATED VIA SPACETRACK.ORG API,18 SPCS,38778,ASTRA 2F,PAYLOAD,U,12051A,2024-03-03 12:53:42,540288,1.00271641,0.0002221,0.0814,256.1162,18.577,108.6811,0,999,3274,0,1.58e-06,0,4206173,0 ASTRA 2F,1 38778U 12051A   24063.53729792  .00000158  00000-0  00000-0 0  9995,2 38778   0.0814 256.1162 0002221  18.5770 108.6811  1.00271641 32749,2012-051A,38778,42164.772,1436.099,35796.002,35777.273,0
